QIANFAN-25              
1 61558U 24185G   25360.24556661  .00000366  00000+0  21502-3 0  9993
2 61558  88.9797  76.6642 0007320 267.4619  92.5726 14.05918784 71403
QIANFAN-26              
1 61559U 24185H   25360.25644219  .00000318  00000+0  30546-3 0  9997
2 61559  88.9806  78.2951 0004529 349.5604  10.5467 13.77820826 70532
QIANFAN-27              
1 61560U 24185J   25360.27883363  .00000569  00000+0  22649-3 0  9999
2 61560  88.9798  75.3592 0006039 233.3644 126.6995 14.27349014 72094
QIANFAN-28              
1 61561U 24185K   25360.25431710  .00000937  00000+0  37162-3 0  9998
2 61561  88.9817  75.3663 0005565 231.0751 128.9948 14.28061655 72101
QIANFAN-29              
1 61562U 24185L   25360.21841111  .00000198  00000+0  28849-3 0  9996
2 61562  88.9784  79.9210 0010080  23.1061 337.0542 13.51016538 69615
QIANFAN-30              
1 61563U 24185M   25360.27758770  .00000185  00000+0  27289-3 0  9994
2 61563  88.9805  79.4455 0007249  11.9970 348.1352 13.49991334 69898
QIANFAN-31              
1 61564U 24185N   25360.24021297  .00000157  00000+0  20132-3 0  9998
2 61564  88.9788  79.2299 0006402   7.1296 352.9949 13.57971166 69997
QIANFAN-32              
1 61565U 24185P   25360.23856047  .00000188  00000+0  27380-3 0  9993
2 61565  88.9847  79.5877 0009959  35.7862 324.3955 13.50738929 69862
